{
  "norad_id": 68427,
  "name": "TRANSPORTER-16 OBJECT M",
  "history": [
    {
      "epoch": "2026-04-14T03:12:07.567488Z",
      "apogee_km": 512.4728323563004,
      "perigee_km": 509.54535861448494,
      "latitude_deg": -2.3750108244591345e-05,
      "longitude_deg": 173.2227527718791,
      "height_km": 515.1814986360778,
      "semi_major_axis_km": 6889.146095485393,
      "eccentricity": 0.00021247,
      "inclination_deg": 97.4495,
      "raan_deg": 63.5685,
      "arg_perigee_deg": 137.9931,
      "mean_anomaly_deg": 222.1466,
      "mean_motion_rev_day": 15.18289784
    }
  ]
}