TRANSPORTER-16 OBJECT M
1 68427U 26067M   26104.13342092  .00005266  00000+0  26009-3 0  9993
2 68427  97.4495  63.5685 0002124 137.9931 222.1466 15.18289784  2224
